{"type": "FeatureCollection", "features": [ {"type": "Feature", "properties": {"norad_id": 64901, "name": "CO3D 4", "group": "resource", "lat": -47.2502463516575, "lon": -128.9571339527172, "alt_km": 511.27152964211473, "timestamp": "2025-12-08T17:43:04.552108+00:00", "meta": {"OBJECT_NAME": "CO3D 4", "OBJECT_ID": "2025-156C", "EPOCH": "2025-12-08T04:04:53.319648", "MEAN_MOTION": 15.20213667, "ECCENTRICITY": 0.00011054, "INCLINATION": 97.4339, "RA_OF_ASC_NODE": 58.6031, "ARG_OF_PERICENTER": 222.8065, "MEAN_ANOMALY": 137.3084, "EPHEMERIS_TYPE": 0, "CLASSIFICATION_TYPE": "U", "NORAD_CAT_ID": 64901, "ELEMENT_SET_NO": 999, "REV_AT_EPOCH": 2051, "BSTAR": 0.00041097104, "MEAN_MOTION_DOT": 8.842e-05, "MEAN_MOTION_DDOT": 0}, "tle": {"line1": "1 64901U 25156C   25342.17006157  .00008842  00000+0  41097-3 0  9997", "line2": "2 64901  97.4339  58.6031 0001105 222.8065 137.3084 15.20213667 20519"}}, "geometry": {"type": "Point", "coordinates": [-128.9571339527172, -47.2502463516575]}}, {"type": "Feature", "properties": {"norad_id": 64902, "name": "CO3D 2", "group": "resource", "lat": 49.36309687529284, "lon": 50.30996565297501, "alt_km": 500.3148606703653, "timestamp": "2025-12-08T17:43:04.552119+00:00", "meta": {"OBJECT_NAME": "CO3D 2", "OBJECT_ID": "2025-156D", "EPOCH": "2025-12-08T00:07:18.506784", "MEAN_MOTION": 15.20198287, "ECCENTRICITY": 8.84e-05, "INCLINATION": 97.4345, "RA_OF_ASC_NODE": 58.339, "ARG_OF_PERICENTER": 87.6856, "MEAN_ANOMALY": 272.448, "EPHEMERIS_TYPE": 0, "CLASSIFICATION_TYPE": "U", "NORAD_CAT_ID": 64902, "ELEMENT_SET_NO": 999, "REV_AT_EPOCH": 2048, "BSTAR": 2.6200131e-05, "MEAN_MOTION_DOT": 5e-06, "MEAN_MOTION_DDOT": 0}, "tle": {"line1": "1 64902U 25156D   25342.00507531  .00000500  00000+0  26200-4 0  9995", "line2": "2 64902  97.4345  58.3390 0000884  87.6856 272.4480 15.20198287 20487"}}, "geometry": {"type": "Point", "coordinates": [50.30996565297501, 49.36309687529284]}}, {"type": "Feature", "properties": {"norad_id": 64903, "name": "CO3D 1", "group": "resource", "lat": 48.549023637192334, "lon": 50.559012692634255, "alt_km": 500.41670862605224, "timestamp": "2025-12-08T17:43:04.552130+00:00", "meta": {"OBJECT_NAME": "CO3D 1", "OBJECT_ID": "2025-156E", "EPOCH": "2025-12-08T06:26:39.926688", "MEAN_MOTION": 15.20192008, "ECCENTRICITY": 9.943e-05, "INCLINATION": 97.4342, "RA_OF_ASC_NODE": 58.598, "ARG_OF_PERICENTER": 93.1226, "MEAN_ANOMALY": 267.0123, "EPHEMERIS_TYPE": 0, "CLASSIFICATION_TYPE": "U", "NORAD_CAT_ID": 64903, "ELEMENT_SET_NO": 999, "REV_AT_EPOCH": 2052, "BSTAR": 0.00041627327, "MEAN_MOTION_DOT": 8.952e-05, "MEAN_MOTION_DDOT": 0}, "tle": {"line1": "1 64903U 25156E   25342.26851767  .00008952  00000+0  41627-3 0  9995", "line2": "2 64903  97.4342  58.5980 0000994  93.1226 267.0123 15.20192008 20521"}}, "geometry": {"type": "Point", "coordinates": [50.559012692634255, 48.549023637192334]}}, {"type": "Feature", "properties": {"norad_id": 66514, "name": "SENTINEL-6B", "group": "resource", "lat": -8.5709815038435, "lon": 166.92037060055034, "alt_km": 1326.1143558315998, "timestamp": "2025-12-08T17:43:04.552141+00:00", "meta": {"OBJECT_NAME": "SENTINEL-6B", "OBJECT_ID": "2025-264A", "EPOCH": "2025-12-08T06:33:03.191040", "MEAN_MOTION": 12.84031978, "ECCENTRICITY": 0.00210419, "INCLINATION": 66.0386, "RA_OF_ASC_NODE": 171.7349, "ARG_OF_PERICENTER": 268.4321, "MEAN_ANOMALY": 91.4286, "EPHEMERIS_TYPE": 0, "CLASSIFICATION_TYPE": "U", "NORAD_CAT_ID": 66514, "ELEMENT_SET_NO": 999, "REV_AT_EPOCH": 271, "BSTAR": 0.0001272869, "MEAN_MOTION_DOT": -3.1e-07, "MEAN_MOTION_DDOT": 0}, "tle": {"line1": "1 66514U 25264A   25342.27295360 -.00000031  00000+0  12729-3 0  9999", "line2": "2 66514  66.0386 171.7349 0021041 268.4321  91.4286 12.84031978  2712"}}, "geometry": {"type": "Point", "coordinates": [166.92037060055034, -8.5709815038435]}}]}